{
  "states": [
    {
      "name": "California",
      "cities": [
        {
          "name": "San Francisco",
          "address": "123 Main St",
          "region": "Northern California",
          "postal_code": "94102",
          "phone_number": "(415) 555-1234"
        },
        {
          "name": "Los Angeles",
          "address": "456 Oak St",
          "region": "Southern California",
          "postal_code": "90012",
          "phone_number": "(213) 555-5678"
        }
      ]
    },
    {
      "name": "Texas",
      "cities": [
        {
          "name": "Austin",
          "address": "789 Elm St",
          "region": "Central Texas",
          "postal_code": "78701",
          "phone_number": "(512) 555-9012"
        },
        {
          "name": "Houston",
          "address": "1010 Main St",
          "region": "Eastern Texas",
          "postal_code": "77002",
          "phone_number": "(713) 555-3456"
        }
      ]
    },
    {
      "name": "Florida",
      "cities": [
        {
          "name": "Miami",
          "address": "1212 Collins Ave",
          "region": "Southern Florida",
          "postal_code": "33139",
          "phone_number": "(305) 555-6789"
        },
        {
          "name": "Orlando",
          "address": "1515 International Dr",
          "region": "Central Florida",
          "postal_code": "32819",
          "phone_number": "(407) 555-2345"
        }
      ]
    },
    {
      "name": "New York",
      "cities": [
        {
          "name": "New York City",
          "address": "789 Broadway",
          "region": "New York City",
          "postal_code": "10003",
          "phone_number": "(212) 555-7890"
        },
        {
          "name": "Buffalo",
          "address": "1010 Elmwood Ave",
          "region": "Western New York",
          "postal_code": "14222",
          "phone_number": "(716) 555-1234"
        }
      ]
    },
    {
      "name": "Illinois",
      "cities": [
        {
          "name": "Chicago",
          "address": "123 State St",
          "region": "Northern Illinois",
          "postal_code": "60602",
          "phone_number": "(312) 555-5678"
        },
        {
          "name": "Springfield",
          "address": "456 Main St",
          "region": "Central Illinois",
          "postal_code": "62701",
          "phone_number": "(217) 555-9012"
        }
      ]
    },
    {
      "name": "Colorado",
      "cities": [
        {
          "name": "Denver",
          "address": "789 Lincoln St",
          "region": "Front Range",
          "postal_code": "80203",
          "phone_number": "(303) 555-3456"
        },
        {
          "name": "Boulder",
          "address": "1010 Pearl St",
          "region": "Northern Colorado",
          "postal_code": "80302"
        }
      ]
    }
  ]
}
